start=new Date('2021-10-15T00:00:00.000Z').valueOf();
sats=[{"ELEMENT_SET_NO":"999","MEAN_MOTION_DDOT":"0.0000000000000","INCLINATION":"53.0572","PERIOD":"95.592","RA_OF_ASC_NODE":"94.7959","TLE_LINE2":"2 48295  53.0572  94.7959 0001721  90.8562 269.2624 15.06397862 26136","APOAPSIS":"548.412","EPOCH":"2021-10-14T21:32:30.588000","EPHEMERIS_TYPE":"0","MEAN_MOTION":"15.06397862","GP_ID":"187190094","OBJECT_ID":"2021-036V","RCS_SIZE":"LARGE","TLE_LINE1":"1 48295U 21036V   21287.89757625 -.00001145  00000-0 -57999-4 0  9995","ECCENTRICITY":"0.00017210","PERIAPSIS":"546.028","REV_AT_EPOCH":"2613","MEAN_MOTION_DOT":"-0.00001145","OBJECT_TYPE":"PAYLOAD","SEMIMAJOR_AXIS":"6925.355","ARG_OF_PERICENTER":"90.8562","DECAY_DATE":null,"COUNTRY_CODE":"US","LAUNCH_DATE":"2021-04-29","NORAD_CAT_ID":"48295","CLASSIFICATION_TYPE":"U","REF_FRAME":"TEME","MEAN_ELEMENT_THEORY":"SGP4","CENTER_NAME":"EARTH","FILE":"3163138","BSTAR":"-0.00005799900000","SITE":"AFETR","MEAN_ANOMALY":"269.2624","OBJECT_NAME":"STARLINK-2535","TIME_SYSTEM":"UTC"},{"OBJECT_NAME":"STARLINK-2546","MEAN_ANOMALY":"264.2435","TIME_SYSTEM":"UTC","NORAD_CAT_ID":"48296","LAUNCH_DATE":"2021-04-29","COUNTRY_CODE":"US","DECAY_DATE":null,"ARG_OF_PERICENTER":"95.8685","SEMIMAJOR_AXIS":"6925.413","SITE":"AFETR","FILE":"3163138","BSTAR":"0.00021972000000","CENTER_NAME":"EARTH","MEAN_ELEMENT_THEORY":"SGP4","REF_FRAME":"TEME","CLASSIFICATION_TYPE":"U","OBJECT_TYPE":"PAYLOAD","PERIAPSIS":"546.484","MEAN_MOTION_DOT":"0.00002991","REV_AT_EPOCH":"2611","ECCENTRICITY":"0.00011460","TLE_LINE1":"1 48296U 21036W   21287.76120245  .00002991  00000-0  21972-3 0  9993","RCS_SIZE":"LARGE","EPOCH":"2021-10-14T18:16:07.891680","APOAPSIS":"548.072","OBJECT_ID":"2021-036W","MEAN_MOTION":"15.06378978","GP_ID":"187189343","EPHEMERIS_TYPE":"0","PERIOD":"95.593","INCLINATION":"53.0588","RA_OF_ASC_NODE":"95.4055","TLE_LINE2":"2 48296  53.0588  95.4055 0001146  95.8685 264.2435 15.06378978 26111","MEAN_MOTION_DDOT":"0.0000000000000","ELEMENT_SET_NO":"999"},{"PERIAPSIS":"546.016","REV_AT_EPOCH":"2611","MEAN_MOTION_DOT":"-0.00000561","OBJECT_TYPE":"PAYLOAD","SEMIMAJOR_AXIS":"6925.358","COUNTRY_CODE":"US","LAUNCH_DATE":"2021-04-29","NORAD_CAT_ID":"48297","DECAY_DATE":null,"ARG_OF_PERICENTER":"88.9816","REF_FRAME":"TEME","CLASSIFICATION_TYPE":"U","SITE":"AFETR","FILE":"3163138","BSTAR":"-0.00001874800000","MEAN_ELEMENT_THEORY":"SGP4","CENTER_NAME":"EARTH","MEAN_ANOMALY":"271.1373","OBJECT_NAME":"STARLINK-2544","TIME_SYSTEM":"UTC","MEAN_MOTION_DDOT":"0.0000000000000","ELEMENT_SET_NO":"999","PERIOD":"95.592","INCLINATION":"53.0565","RA_OF_ASC_NODE":"95.4224","TLE_LINE2":"2 48297  53.0565  95.4224 0001742  88.9816 271.1373 15.06397029 26112","APOAPSIS":"548.429","EPOCH":"2021-10-14T18:10:48.857952","EPHEMERIS_TYPE":"0","OBJECT_ID":"2021-036X","MEAN_MOTION":"15.06397029","GP_ID":"187189593","RCS_SIZE":"LARGE","TLE_LINE1":"1 48297U 21036X   21287.75750993 -.00000561  00000-0 -18748-4 0  9993","ECCENTRICITY":"0.00017420"},{"CLASSIFICATION_TYPE":"U","REF_FRAME":"TEME","FILE":"3163138","BSTAR":"-0.00002823800000","SITE":"AFETR","MEAN_ELEMENT_THEORY":"SGP4","CENTER_NAME":"EARTH","SEMIMAJOR_AXIS":"6925.348","COUNTRY_CODE":"US","LAUNCH_DATE":"2021-04-29","NORAD_CAT_ID":"48298","ARG_OF_PERICENTER":"94.2420","DECAY_DATE":null,"TIME_SYSTEM":"UTC","MEAN_ANOMALY":"265.8745","OBJECT_NAME":"STARLINK-2559","REV_AT_EPOCH":"2611","MEAN_MOTION_DOT":"-0.00000702","PERIAPSIS":"546.148","OBJECT_TYPE":"PAYLOAD","EPHEMERIS_TYPE":"0","OBJECT_ID":"2021-036Y","GP_ID":"187189844","MEAN_MOTION":"15.06400022","APOAPSIS":"548.279","EPOCH":"2021-10-14T18:05:30.453216","RCS_SIZE":"LARGE","TLE_LINE1":"1 48298U 21036Y   21287.75382469 -.00000702  00000-0 -28238-4 0  9995","ECCENTRICITY":"0.00015390","MEAN_MOTION_DDOT":"0.0000000000000","ELEMENT_SET_NO":"999","TLE_LINE2":"2 48298  53.0554  95.4374 0001539  94.2420 265.8745 15.06400022 26113","RA_OF_ASC_NODE":"95.4374","INCLINATION":"53.0554","PERIOD":"95.592"},{"MEAN_MOTION_DDOT":"0.0000000000000","ELEMENT_SET_NO":"999","INCLINATION":"53.0577","PERIOD":"95.592","RA_OF_ASC_NODE":"95.1387","TLE_LINE2":"2 48299  53.0577  95.1387 0001519 108.7533 251.3620 15.06394435 26127","EPOCH":"2021-10-14T19:35:44.146752","APOAPSIS":"548.283","OBJECT_ID":"2021-036Z","GP_ID":"187190595","MEAN_MOTION":"15.06394435","EPHEMERIS_TYPE":"0","ECCENTRICITY":"0.00015190","TLE_LINE1":"1 48299U 21036Z   21287.81648318 -.00000199  00000-0  55598-5 0  9990","RCS_SIZE":"LARGE","PERIAPSIS":"546.179","MEAN_MOTION_DOT":"-0.00000199","REV_AT_EPOCH":"2612","OBJECT_TYPE":"PAYLOAD","COUNTRY_CODE":"US","LAUNCH_DATE":"2021-04-29","NORAD_CAT_ID":"48299","ARG_OF_PERICENTER":"108.7533","DECAY_DATE":null,"SEMIMAJOR_AXIS":"6925.366","SITE":"AFETR","FILE":"3163138","BSTAR":"0.00000555980000","CENTER_NAME":"EARTH","MEAN_ELEMENT_THEORY":"SGP4","REF_FRAME":"TEME","CLASSIFICATION_TYPE":"U","OBJECT_NAME":"STARLINK-2557","MEAN_ANOMALY":"251.3620","TIME_SYSTEM":"UTC"},{"PERIOD":"95.593","INCLINATION":"53.0562","TLE_LINE2":"2 48300  53.0562 106.3738 0001627  79.9943 280.1229 15.06392717 26523","RA_OF_ASC_NODE":"106.3738","MEAN_MOTION_DDOT":"0.0000000000000","ELEMENT_SET_NO":"999","TLE_LINE1":"1 48300U 21036AA  21287.54281196 -.00001744  00000-0 -98208-4 0  9992","RCS_SIZE":"LARGE","ECCENTRICITY":"0.00016270","APOAPSIS":"548.363","EPOCH":"2021-10-14T13:01:38.953344","EPHEMERIS_TYPE":"0","OBJECT_ID":"2021-036AA","MEAN_MOTION":"15.06392717","GP_ID":"187142595","OBJECT_TYPE":"PAYLOAD","PERIAPSIS":"546.109","REV_AT_EPOCH":"2652","MEAN_MOTION_DOT":"-0.00001744","MEAN_ANOMALY":"280.1229","OBJECT_NAME":"STARLINK-2538","TIME_SYSTEM":"UTC","SEMIMAJOR_AXIS":"6925.371","NORAD_CAT_ID":"48300","LAUNCH_DATE":"2021-04-29","COUNTRY_CODE":"US","ARG_OF_PERICENTER":"79.9943","DECAY_DATE":null,"CLASSIFICATION_TYPE":"U","REF_FRAME":"TEME","FILE":"3161973","BSTAR":"-0.00009820800000","SITE":"AFETR","MEAN_ELEMENT_THEORY":"SGP4","CENTER_NAME":"EARTH"},{"CLASSIFICATION_TYPE":"U","REF_FRAME":"TEME","MEAN_ELEMENT_THEORY":"SGP4","CENTER_NAME":"EARTH","BSTAR":"-0.00008205100000","FILE":"3163138","SITE":"AFETR","SEMIMAJOR_AXIS":"6925.365","DECAY_DATE":null,"ARG_OF_PERICENTER":"81.7756","COUNTRY_CODE":"US","LAUNCH_DATE":"2021-04-29","NORAD_CAT_ID":"48301","TIME_SYSTEM":"UTC","MEAN_ANOMALY":"278.3459","OBJECT_NAME":"STARLINK-2537","REV_AT_EPOCH":"2597","MEAN_MOTION_DOT":"-0.00001503","PERIAPSIS":"545.845","OBJECT_TYPE":"PAYLOAD","EPHEMERIS_TYPE":"0","MEAN_MOTION":"15.06394706","GP_ID":"187189093","OBJECT_ID":"2021-036AB","APOAPSIS":"548.615","EPOCH":"2021-10-14T19:18:29.890368","RCS_SIZE":"LARGE","TLE_LINE1":"1 48301U 21036AB  21287.80451262 -.00001503  00000-0 -82051-4 0  9997","ECCENTRICITY":"0.00020000","ELEMENT_SET_NO":"999","MEAN_MOTION_DDOT":"0.0000000000000","RA_OF_ASC_NODE":"105.2000","TLE_LINE2":"2 48301  53.0520 105.2000 0002000  81.7756 278.3459 15.06394706 25979","PERIOD":"95.592","INCLINATION":"53.0520"},{"SEMIMAJOR_AXIS":"6925.329","NORAD_CAT_ID":"48302","LAUNCH_DATE":"2021-04-29","COUNTRY_CODE":"US","ARG_OF_PERICENTER":"70.3868","DECAY_DATE":null,"CLASSIFICATION_TYPE":"U","REF_FRAME":"TEME","FILE":"3163138","BSTAR":"0.00012846000000","SITE":"AFETR","MEAN_ELEMENT_THEORY":"SGP4","CENTER_NAME":"EARTH","MEAN_ANOMALY":"289.7262","OBJECT_NAME":"STARLINK-2556","TIME_SYSTEM":"UTC","PERIAPSIS":"546.290","REV_AT_EPOCH":"2598","MEAN_MOTION_DOT":"0.00001633","OBJECT_TYPE":"PAYLOAD","APOAPSIS":"548.098","EPOCH":"2021-10-14T20:48:42.994656","EPHEMERIS_TYPE":"0","OBJECT_ID":"2021-036AC","MEAN_MOTION":"15.06406409","GP_ID":"187190345","RCS_SIZE":"LARGE","TLE_LINE1":"1 48302U 21036AC  21287.86716429  .00001633  00000-0  12846-3 0  9999","ECCENTRICITY":"0.00013050","MEAN_MOTION_DDOT":"0.0000000000000","ELEMENT_SET_NO":"999","PERIOD":"95.592","INCLINATION":"53.0558","TLE_LINE2":"2 48302  53.0558 104.9124 0001305  70.3868 289.7262 15.06406409 25982","RA_OF_ASC_NODE":"104.9124"},{"APOAPSIS":"548.701","EPOCH":"2021-10-14T19:07:53.283072","EPHEMERIS_TYPE":"0","OBJECT_ID":"2021-036AD","GP_ID":"187190095","MEAN_MOTION":"15.06390540","TLE_LINE1":"1 48303U 21036AD  21287.79714448 -.00000834  00000-0 -37076-4 0  9998","RCS_SIZE":"LARGE","ECCENTRICITY":"0.00021060","MEAN_MOTION_DDOT":"0.0000000000000","ELEMENT_SET_NO":"999","INCLINATION":"53.0537","PERIOD":"95.593","TLE_LINE2":"2 48303  53.0537 105.2283 0002106  85.2679 274.8550 15.06390540 25977","RA_OF_ASC_NODE":"105.2283","SEMIMAJOR_AXIS":"6925.378","LAUNCH_DATE":"2021-04-29","NORAD_CAT_ID":"48303","COUNTRY_CODE":"US","DECAY_DATE":null,"ARG_OF_PERICENTER":"85.2679","CLASSIFICATION_TYPE":"U","REF_FRAME":"TEME","SITE":"AFETR","FILE":"3163138","BSTAR":"-0.00003707600000","MEAN_ELEMENT_THEORY":"SGP4","CENTER_NAME":"EARTH","MEAN_ANOMALY":"274.8550","OBJECT_NAME":"STARLINK-2530","TIME_SYSTEM":"UTC","PERIAPSIS":"545.784","REV_AT_EPOCH":"2597","MEAN_MOTION_DOT":"-0.00000834","OBJECT_TYPE":"PAYLOAD"},{"EPHEMERIS_TYPE":"0","OBJECT_ID":"2021-036AE","MEAN_MOTION":"15.06454776","GP_ID":"187189344","APOAPSIS":"548.623","EPOCH":"2021-10-14T19:02:30.948864","TLE_LINE1":"1 48304U 21036AE  21287.79341376 -.00017794  00000-0 -11768-2 0  9996","RCS_SIZE":"LARGE","ECCENTRICITY":"0.00022780","MEAN_MOTION_DDOT":"0.0000000000000","ELEMENT_SET_NO":"999","TLE_LINE2":"2 48304  53.0547 105.2493 0002278  62.0838 298.0381 15.06454776 25974","RA_OF_ASC_NODE":"105.2493","PERIOD":"95.589","INCLINATION":"53.0547","CLASSIFICATION_TYPE":"U","REF_FRAME":"TEME","BSTAR":"-0.00117680000000","FILE":"3163138","SITE":"AFETR","MEAN_ELEMENT_THEORY":"SGP4","CENTER_NAME":"EARTH","SEMIMAJOR_AXIS":"6925.181","LAUNCH_DATE":"2021-04-29","NORAD_CAT_ID":"48304","COUNTRY_CODE":"US","DECAY_DATE":null,"ARG_OF_PERICENTER":"62.0838","TIME_SYSTEM":"UTC","MEAN_ANOMALY":"298.0381","OBJECT_NAME":"STARLINK-2524","REV_AT_EPOCH":"2597","MEAN_MOTION_DOT":"-0.00017794","PERIAPSIS":"545.468","OBJECT_TYPE":"PAYLOAD"}];
